0 THORAD AGENA D DEB
1 04756U 70025DE  13282.70609603  .00000021  00000-0  10857-3 0  8382
2 04756 100.0866 177.6982 0027590 316.4982 105.3744 13.48351567137931
0 THORAD AGENA D DEB
1 04756U 70025DE  13286.71301105  .00000065  00000-0  17916-3 0  8407
2 04756 100.0866 181.7418 0027468 306.5947 115.3297 13.48352251138471
0 THORAD AGENA D DEB
1 04756U 70025DE  13289.18097661  .00000081  00000-0  20534-3 0  8419
2 04756 100.0863 184.2327 0027405 300.4969 215.0775 13.48353012138805
0 THORAD AGENA D DEB
1 04756U 70025DE  13291.18383847  .00000088  00000-0  21653-3 0  8427
2 04756 100.0862 186.2539 0027369 295.5136 217.2057 13.48353634139077
0 THORAD AGENA D DEB
1 04756U 70025DE  13293.18785120  .00000094  00000-0  22592-3 0  8430
2 04756 100.0859 188.2764 0027312 290.5101 224.9422 13.48354225139348
0 THORAD AGENA D DEB
1 04756U 70025DE  13295.19108081  .00000086  00000-0  21256-3 0  8446
2 04756 100.0859 190.2980 0027268 285.5383 228.8514 13.48354854139610
